{"epoch":1784799577,"count":18318,"objects":[{"id":"55169","name":"ONEWEB-0628","type":"PAYLOAD","l1":"1 55169U 23004AF  26203.85529248  .00000154  00000-0  39333-3 0  9995","l2":"2 55169  87.8977 343.5631 0001263  86.1541 273.9732 13.12438492172714"},{"id":"55170","name":"ONEWEB-0629","type":"PAYLOAD","l1":"1 55170U 23004AG  26203.87943066  .00000035  00000-0  55838-4 0  9994","l2":"2 55170  87.9153 358.7704 0001521  97.3835 262.7470 13.17650239172286"},{"id":"55171","name":"ONEWEB-0631","type":"PAYLOAD","l1":"1 55171U 23004AH  26203.30818097  .00000039  00000-0  66596-4 0  9995","l2":"2 55171  87.9200 328.4536 0002230  87.5357 272.6031 13.18687030174303"},{"id":"55172","name":"ONEWEB-0709","type":"PAYLOAD","l1":"1 55172U 23004AJ  26203.91123851  .00000306  00000-0  82789-3 0  9998","l2":"2 55172  87.8890  13.9647 0002710  93.5693 266.5745 13.11418672170554"},{"id":"55173","name":"ONEWEB-0710","type":"PAYLOAD","l1":"1 55173U 23004AK  26202.98254745  .00000011  00000-0 -46927-5 0  9992","l2":"2 55173  87.9153 358.9437 0001805  88.3322 271.8016 13.17648859172169"},{"id":"55174","name":"ONEWEB-0711","type":"PAYLOAD","l1":"1 55174U 23004AL  26203.72980918 -.00000488  00000-0 -14137-2 0  9998","l2":"2 55174  87.8892  13.9889 0001592  68.5547 291.5751 13.11416753170499"},{"id":"55175","name":"ONEWEB-0713","type":"PAYLOAD","l1":"1 55175U 23004AM  26203.44328328 -.00000023  00000-0 -10197-3 0  9997","l2":"2 55175  87.8895  14.0482 0001690  79.8534 280.2785 13.11418917170445"},{"id":"55176","name":"ONEWEB-0715","type":"PAYLOAD","l1":"1 55176U 23004AN  26203.89597537 -.00000363  00000-0 -10598-2 0  9998","l2":"2 55176  87.8892  13.9587 0002458  86.1374 274.0035 13.11418101170548"},{"id":"55177","name":"ONEWEB-0716","type":"PAYLOAD","l1":"1 55177U 23004AP  26202.67205174  .00000037  00000-0  63114-4 0  9997","l2":"2 55177  87.9153 359.0084 0001832 100.9471 259.1867 13.17649269172124"},{"id":"55178","name":"ONEWEB-0717","type":"PAYLOAD","l1":"1 55178U 23004AQ  26203.87015237  .00000067  00000-0  14063-3 0  9991","l2":"2 55178  87.9164 358.7615 0001852  77.0935 283.0403 13.17647757172339"},{"id":"55179","name":"ONEWEB-0719","type":"PAYLOAD","l1":"1 55179U 23004AR  26203.88027258  .00000036  00000-0  59083-4 0  9997","l2":"2 55179  87.9164 358.7395 0001715  99.5146 260.6179 13.17647925172288"},{"id":"55239","name":"APSTAR 6E","type":"PAYLOAD","l1":"1 55239U 23005A   26202.92061475 -.00000315  00000-0  00000-0 0  9990","l2":"2 55239   0.0410 241.2606 0003590 325.0758 198.7590  1.00273212 19039"},{"id":"55244","name":"YAOGAN-37","type":"PAYLOAD","l1":"1 55244U 23006C   26203.63151041  .00005351  00000-0  27295-3 0  9997","l2":"2 55244  43.1968 286.2545 0017594 238.3863 121.5271 15.17482528195269"},{"id":"55246","name":"LINUSS1","type":"PAYLOAD","l1":"1 55246U 22144G   26200.86717919 -.00000072  00000-0  00000-0 0  9993","l2":"2 55246   5.4593  63.9356 0009808 309.9285 333.3364  0.99052330 11988"},{"id":"55247","name":"LINUSS2","type":"PAYLOAD","l1":"1 55247U 22144H   26203.62903084  .00000057  00000-0  00000-0 0  9993","l2":"2 55247   5.4651  63.9050 0007146 318.5252 218.7436  0.99048110 12065"},{"id":"55263","name":"USA 342","type":"PAYLOAD","l1":"1 55263U 23008A   26200.33994240  .00000000  00000-0  00000+0 0  9997","l2":"2 55263   0.0047  62.4879 0000215 103.9152 276.9334  1.00270942 12832"},{"id":"55268","name":"NAVSTAR 82 (USA 343)","type":"PAYLOAD","l1":"1 55268U 23009A   26201.60569105  .00000029  00000-0  00000-0 0  9994","l2":"2 55268  55.1257 147.2053 0005287 339.0004 198.4380  2.00569363 25910"},{"id":"55269","name":"STARLINK-5277","type":"PAYLOAD","l1":"1 55269U 23010A   26203.00917754 -.00001600  00000-0 -12631-3 0  9994","l2":"2 55269  70.0001  65.8714 0003025 272.7822  87.2991 14.98332732193188"},{"id":"55271","name":"STARLINK-5306","type":"PAYLOAD","l1":"1 55271U 23010C   26203.34715255  .00000526  00000-0  51862-4 0  9990","l2":"2 55271  69.9998  65.0457 0002908 268.1833  91.8993 14.98332088192950"},{"id":"55272","name":"STARLINK-5310","type":"PAYLOAD","l1":"1 55272U 23010D   26203.86453589 -.00000350  00000-0 -21527-4 0  9999","l2":"2 55272  70.0000  63.6439 0002763 267.7046  92.3797 14.98331669193034"},{"id":"55273","name":"STARLINK-5291","type":"PAYLOAD","l1":"1 55273U 23010E   26203.57245240 -.00002368  00000-0 -19081-3 0  9993","l2":"2 55273  70.0001  64.2339 0003654 270.2726  89.8014 14.98318288192995"},{"id":"55274","name":"STARLINK-5236","type":"PAYLOAD","l1":"1 55274U 23010F   26203.53468831  .00000234  00000-0  27377-4 0  9999","l2":"2 55274  69.9998  44.6268 0002355 266.9092  93.1798 14.98332916193471"},{"id":"55275","name":"STARLINK-5260","type":"PAYLOAD","l1":"1 55275U 23010G   26203.52650907  .00002928  00000-0  25304-3 0  9995","l2":"2 55275  70.0012  44.5984 0002390 265.7525  94.3361 14.98339621193472"},{"id":"55276","name":"STARLINK-5261","type":"PAYLOAD","l1":"1 55276U 23010H   26203.52634046  .00000325  00000-0  35021-4 0  9999","l2":"2 55276  69.9995  44.5961 0002851 267.5778  92.5054 14.98333908193467"},{"id":"55277","name":"STARLINK-5299","type":"PAYLOAD","l1":"1 55277U 23010J   26203.86871164 -.00000402  00000-0 -25937-4 0  9994","l2":"2 55277  69.9998  63.6552 0002758 268.6764  91.4079 14.98331119193032"},{"id":"55278","name":"STARLINK-5289","type":"PAYLOAD","l1":"1 55278U 23010K   26203.58497222 -.00000393  00000-0 -25115-4 0  9990","l2":"2 55278  69.9998  64.2683 0002596 271.6626  88.4235 14.98331956192988"},{"id":"55280","name":"STARLINK-5331","type":"PAYLOAD","l1":"1 55280U 23010M   26203.02169887  .00000092  00000-0  15538-4 0  9997","l2":"2 55280  69.9996  65.9053 0002829 268.7764  91.3071 14.98333846192898"},{"id":"55281","name":"STARLINK-5298","type":"PAYLOAD","l1":"1 55281U 23010N   26203.05923769  .00000443  00000-0  44945-4 0  9992","l2":"2 55281  69.9998  65.6446 0002674 270.9211  89.1642 14.98335498192900"},{"id":"55282","name":"STARLINK-5330","type":"PAYLOAD","l1":"1 55282U 23010P   26203.56845167  .00000724  00000-0  68430-4 0  9991","l2":"2 55282  69.9994  64.2073 0002714 266.4080  93.6769 14.98337956192986"},{"id":"55283","name":"STARLINK-5317","type":"PAYLOAD","l1":"1 55283U 23010Q   26203.58915990  .00000471  00000-0  47286-4 0  9991","l2":"2 55283  69.9996  64.2826 0003026 272.2116  87.8697 14.98332969192981"}]}