OBJECT_NAME,OBJECT_ID,EPOCH,MEAN_MOTION,ECCENTRICITY,INCLINATION,RA_OF_ASC_NODE,ARG_OF_PERICENTER,MEAN_ANOMALY,EPHEMERIS_TYPE,CLASSIFICATION_TYPE,NORAD_CAT_ID,ELEMENT_SET_NO,REV_AT_EPOCH,BSTAR,MEAN_MOTION_DOT,MEAN_MOTION_DDOT
ONEWEB-0628,2023-004AF,2026-07-22T20:31:37.270272,13.12438492,.00012631,87.8977,343.5631,86.1541,273.9732,0,U,55169,999,17271,.39332798E-3,.154E-5,0
ONEWEB-0629,2023-004AG,2026-07-22T21:06:22.809024,13.17650239,.00015206,87.9153,358.7704,97.3835,262.7470,0,U,55170,999,17228,.55838213E-4,.35E-6,0
ONEWEB-0631,2023-004AH,2026-07-22T07:23:46.835808,13.18687030,.00022302,87.9200,328.4536,87.5357,272.6031,0,U,55171,999,17430,.66596485E-4,.39E-6,0
ONEWEB-0709,2023-004AJ,2026-07-22T21:52:11.007264,13.11418672,.00027103,87.8890,13.9647,93.5693,266.5745,0,U,55172,999,17055,.82788718E-3,.306E-5,0
ONEWEB-0710,2023-004AK,2026-07-21T23:34:52.099680,13.17648859,.00018048,87.9153,358.9437,88.3322,271.8016,0,U,55173,999,17216,-.4692728E-5,.11E-6,0
ONEWEB-0711,2023-004AL,2026-07-22T17:30:55.513152,13.11416753,.00015924,87.8892,13.9889,68.5547,291.5751,0,U,55174,999,17049,-.14137396E-2,-.488E-5,0
ONEWEB-0713,2023-004AM,2026-07-22T10:38:19.675392,13.11418917,.00016905,87.8895,14.0482,79.8534,280.2785,0,U,55175,999,17044,-.10197259E-3,-.23E-6,0
ONEWEB-0715,2023-004AN,2026-07-22T21:30:12.271968,13.11418101,.00024575,87.8892,13.9587,86.1374,274.0035,0,U,55176,999,17054,-.10597553E-2,-.363E-5,0
ONEWEB-0716,2023-004AP,2026-07-21T16:07:45.270336,13.17649269,.00018321,87.9153,359.0084,100.9471,259.1867,0,U,55177,999,17212,.63113833E-4,.37E-6,0
ONEWEB-0717,2023-004AQ,2026-07-22T20:53:01.164768,13.17647757,.00018524,87.9164,358.7615,77.0935,283.0403,0,U,55178,999,17233,.14063347E-3,.67E-6,0
ONEWEB-0719,2023-004AR,2026-07-22T21:07:35.550912,13.17647925,.0001715,87.9164,358.7395,99.5146,260.6179,0,U,55179,999,17228,.59083458E-4,.36E-6,0
APSTAR-6E,2023-005A,2026-07-21T22:05:41.114400,1.00273212,.00035901,0.0410,241.2606,325.0758,198.7590,0,U,55239,999,1903,0,-.315E-5,0
YAOGAN-37,2023-006C,2026-07-22T15:09:22.499424,15.17482528,.00175939,43.1968,286.2545,238.3863,121.5271,0,U,55244,999,19526,.27295453E-3,.5351E-4,0
LINUSS1,2022-144G,2026-07-19T20:48:44.282016,0.99052330,.00098083,5.4593,63.9356,309.9285,333.3364,0,U,55246,999,1198,0,-.72E-6,0
LINUSS2,2022-144H,2026-07-22T15:05:48.264576,0.99048110,.00071465,5.4651,63.9050,318.5252,218.7436,0,U,55247,999,1206,0,.57E-6,0
USA 342,2023-008A,2026-07-19T08:09:31.023360,1.00270942,.0000215,0.0047,62.4879,103.9152,276.9334,0,U,55263,999,1283,0,0,0
NAVSTAR 82 (USA 343),2023-009A,2026-07-20T14:32:11.706720,2.00569363,.00052868,55.1257,147.2053,339.0004,198.4380,0,U,55268,999,2591,0,.29E-6,0
STARLINK-5277,2023-010A,2026-07-22T00:13:12.939456,14.98332732,.0003025,70.0001,65.8714,272.7822,87.2991,0,U,55269,999,19318,-.12630595E-3,-.16E-4,0
STARLINK-5306,2023-010C,2026-07-22T08:19:53.980320,14.98332088,.00029081,69.9998,65.0457,268.1833,91.8993,0,U,55271,999,19295,.5186188E-4,.526E-5,0
STARLINK-5310,2023-010D,2026-07-22T20:44:55.900896,14.98331669,.00027629,70.0000,63.6439,267.7046,92.3797,0,U,55272,999,19303,-.2152675E-4,-.35E-5,0
STARLINK-5291,2023-010E,2026-07-22T13:44:19.887360,14.98318288,.0003654,70.0001,64.2339,270.2726,89.8014,0,U,55273,999,19299,-.19080756E-3,-.2368E-4,0
STARLINK-5236,2023-010F,2026-07-22T12:49:57.069984,14.98332916,.00023552,69.9998,44.6268,266.9092,93.1798,0,U,55274,999,19347,.2737715E-4,.234E-5,0
STARLINK-5260,2023-010G,2026-07-22T12:38:10.383648,14.98339621,.00023904,70.0012,44.5984,265.7525,94.3361,0,U,55275,999,19347,.25303702E-3,.2928E-4,0
STARLINK-5261,2023-010H,2026-07-22T12:37:55.815744,14.98333908,.00028513,69.9995,44.5961,267.5778,92.5054,0,U,55276,999,19346,.35021134E-4,.325E-5,0
STARLINK-5299,2023-010J,2026-07-22T20:50:56.685696,14.98331119,.00027582,69.9998,63.6552,268.6764,91.4079,0,U,55277,999,19303,-.25937144E-4,-.402E-5,0
STARLINK-5289,2023-010K,2026-07-22T14:02:21.599808,14.98331956,.00025957,69.9998,64.2683,271.6626,88.4235,0,U,55278,999,19298,-.25115062E-4,-.393E-5,0
STARLINK-5331,2023-010M,2026-07-22T00:31:14.782368,14.98333846,.00028295,69.9996,65.9053,268.7764,91.3071,0,U,55280,999,19289,.15537529E-4,.92E-6,0
STARLINK-5298,2023-010N,2026-07-22T01:25:18.136416,14.98335498,.00026743,69.9998,65.6446,270.9211,89.1642,0,U,55281,999,19290,.4494461E-4,.443E-5,0
STARLINK-5330,2023-010P,2026-07-22T13:38:34.224288,14.98337956,.00027143,69.9994,64.2073,266.4080,93.6769,0,U,55282,999,19298,.68430258E-4,.724E-5,0
STARLINK-5317,2023-010Q,2026-07-22T14:08:23.415360,14.98332969,.00030255,69.9996,64.2826,272.2116,87.8697,0,U,55283,999,19298,.47285928E-4,.471E-5,0
